STARLINK-31815          
1 59801U 24093V   26068.42716813  .00000738  00000+0  36342-4 0  9994
2 59801  43.0003 210.5145 0001358 281.4002  78.6697 15.27576930102659
FLOCK 4G-25             
1 62646U 25009AP  26068.74572546  .00010373  00000+0  38902-3 0  9990
2 62646  97.4049 151.4141 0000828 316.3151  43.8023 15.27424196 63734
